UNKNOWN                 
1 82139U          25314.12263560  .00003433  00000+0  17292-2 0  9998
2 82139  99.0266  21.6127 0084522 135.2962 225.5065 14.15188574475505
UNKNOWN                 
1 82162U          25315.52914629  .00005395  00000+0  80275-2 0  9998
2 82162 100.4773 238.2411 0062748 311.8624  47.7164 13.53231428500080
UNKNOWN                 
1 82180U          25313.58781900  .00029825  00000+0  38566-2 0  9996
2 82180  65.6557  22.0529 0328103 234.1204 122.9026 14.49630626596944
UNKNOWN                 
1 82189U          25311.72381778  .00000492  00000+0  18099-3 0  9997
2 82189  74.0326 112.5190 0017293 310.0456  49.9178 14.35169247627399
UNKNOWN                 
1 82199U          25316.30189771  .00001039  00000+0  88930-3 0  9995
2 82199  82.9660 256.7622 0037940 120.0772  32.2365 13.85727425605471
UNKNOWN                 
1 82205U          25314.08273525  .00006052  00000+0  17085-2 0  9999
2 82205  63.0113 338.0684 0494784 289.5399  65.2863 13.92917861603451
UNKNOWN                 
1 82223U          25316.15302788  .00003151  00000+0  17195-2 0  9992
2 82223  99.3186 200.9294 0069683  69.6403 291.2236 14.11613073444476
UNKNOWN                 
1 82250U          25301.70625250  .00004674  00000+0  24508-2 0  9996
2 82250  98.9048 207.3433 0073200 320.9961  67.4133 14.13330554610270
UNKNOWN                 
1 82272U          25316.46933179  .00000646  00000+0  21513-2 0  9999
2 82272  67.5250 255.5521 0752959 125.9933 241.3298 12.33506567268207
UNKNOWN                 
1 82295U          25309.55036324  .00001555  00000+0  56719-3 0  9999
2 82295  66.6200 245.9932 0129908 248.5318 110.1886 14.31184947574409
UNKNOWN                 
1 82303U          25315.50157742  .00040988  00000+0  36194-1 0  9995
2 82303  81.9150  30.0794 0052843 117.9703 258.6600 13.84186330510106
UNKNOWN                 
1 82311U          25314.10952784  .00000797  00000+0  11829-2 0  9991
2 82311  99.4368   9.4210 0108454  30.7088 330.0337 13.54479600545901
