CCSDS_OMM_VERS = 2.0
CREATION_DATE  = 
ORIGINATOR     = 

OBJECT_NAME    = UNKNOWN
OBJECT_ID      = 
CENTER_NAME    = EARTH
REF_FRAME      = TEME
TIME_SYSTEM    = UTC
MEAN_ELEMENT_THEORY = SGP/SGP4

EPOCH          = 2025-11-10T02:56:35.715840
MEAN_MOTION    = 14.15188574
ECCENTRICITY   = .0084522
INCLINATION    = 99.0266
RA_OF_ASC_NODE = 21.6127
ARG_OF_PERICENTER = 135.2962
MEAN_ANOMALY   = 225.5065

EPHEMERIS_TYPE = 0
CLASSIFICATION_TYPE = U
NORAD_CAT_ID   = 82139
ELEMENT_SET_NO = 999
REV_AT_EPOCH   = 47550
BSTAR          = .17292E-2
MEAN_MOTION_DOT = .3433E-4
MEAN_MOTION_DDOT = 0

CCSDS_OMM_VERS = 2.0
CREATION_DATE  = 
ORIGINATOR     = 

OBJECT_NAME    = UNKNOWN
OBJECT_ID      = 
CENTER_NAME    = EARTH
REF_FRAME      = TEME
TIME_SYSTEM    = UTC
MEAN_ELEMENT_THEORY = SGP/SGP4

EPOCH          = 2025-11-11T12:41:58.239456
MEAN_MOTION    = 13.53231428
ECCENTRICITY   = .0062748
INCLINATION    = 100.4773
RA_OF_ASC_NODE = 238.2411
ARG_OF_PERICENTER = 311.8624
MEAN_ANOMALY   = 47.7164

EPHEMERIS_TYPE = 0
CLASSIFICATION_TYPE = U
NORAD_CAT_ID   = 82162
ELEMENT_SET_NO = 999
REV_AT_EPOCH   = 50008
BSTAR          = .80275E-2
MEAN_MOTION_DOT = .5395E-4
MEAN_MOTION_DDOT = 0

CCSDS_OMM_VERS = 2.0
CREATION_DATE  = 
ORIGINATOR     = 

OBJECT_NAME    = UNKNOWN
OBJECT_ID      = 
CENTER_NAME    = EARTH
REF_FRAME      = TEME
TIME_SYSTEM    = UTC
MEAN_ELEMENT_THEORY = SGP/SGP4

EPOCH          = 2025-11-09T14:06:27.561600
MEAN_MOTION    = 14.49630626
ECCENTRICITY   = .0328103
INCLINATION    = 65.6557
RA_OF_ASC_NODE = 22.0529
ARG_OF_PERICENTER = 234.1204
MEAN_ANOMALY   = 122.9026

EPHEMERIS_TYPE = 0
CLASSIFICATION_TYPE = U
NORAD_CAT_ID   = 82180
ELEMENT_SET_NO = 999
REV_AT_EPOCH   = 59694
BSTAR          = .38566E-2
MEAN_MOTION_DOT = .29825E-3
MEAN_MOTION_DDOT = 0

CCSDS_OMM_VERS = 2.0
CREATION_DATE  = 
ORIGINATOR     = 

OBJECT_NAME    = UNKNOWN
OBJECT_ID      = 
CENTER_NAME    = EARTH
REF_FRAME      = TEME
TIME_SYSTEM    = UTC
MEAN_ELEMENT_THEORY = SGP/SGP4

EPOCH          = 2025-11-07T17:22:17.856192
MEAN_MOTION    = 14.35169247
ECCENTRICITY   = .0017293
INCLINATION    = 74.0326
RA_OF_ASC_NODE = 112.5190
ARG_OF_PERICENTER = 310.0456
MEAN_ANOMALY   = 49.9178

EPHEMERIS_TYPE = 0
CLASSIFICATION_TYPE = U
NORAD_CAT_ID   = 82189
ELEMENT_SET_NO = 999
REV_AT_EPOCH   = 62739
BSTAR          = .18099E-3
MEAN_MOTION_DOT = .492E-5
MEAN_MOTION_DDOT = 0

CCSDS_OMM_VERS = 2.0
CREATION_DATE  = 
ORIGINATOR     = 

OBJECT_NAME    = UNKNOWN
OBJECT_ID      = 
CENTER_NAME    = EARTH
REF_FRAME      = TEME
TIME_SYSTEM    = UTC
MEAN_ELEMENT_THEORY = SGP/SGP4

EPOCH          = 2025-11-12T07:14:43.962144
MEAN_MOTION    = 13.85727425
ECCENTRICITY   = .003794
INCLINATION    = 82.9660
RA_OF_ASC_NODE = 256.7622
ARG_OF_PERICENTER = 120.0772
MEAN_ANOMALY   = 32.2365

EPHEMERIS_TYPE = 0
CLASSIFICATION_TYPE = U
NORAD_CAT_ID   = 82199
ELEMENT_SET_NO = 999
REV_AT_EPOCH   = 60547
BSTAR          = .8893E-3
MEAN_MOTION_DOT = .1039E-4
MEAN_MOTION_DDOT = 0

CCSDS_OMM_VERS = 2.0
CREATION_DATE  = 
ORIGINATOR     = 

OBJECT_NAME    = UNKNOWN
OBJECT_ID      = 
CENTER_NAME    = EARTH
REF_FRAME      = TEME
TIME_SYSTEM    = UTC
MEAN_ELEMENT_THEORY = SGP/SGP4

EPOCH          = 2025-11-10T01:59:08.325600
MEAN_MOTION    = 13.92917861
ECCENTRICITY   = .0494784
INCLINATION    = 63.0113
RA_OF_ASC_NODE = 338.0684
ARG_OF_PERICENTER = 289.5399
MEAN_ANOMALY   = 65.2863

EPHEMERIS_TYPE = 0
CLASSIFICATION_TYPE = U
NORAD_CAT_ID   = 82205
ELEMENT_SET_NO = 999
REV_AT_EPOCH   = 60345
BSTAR          = .17085E-2
MEAN_MOTION_DOT = .6052E-4
MEAN_MOTION_DDOT = 0

CCSDS_OMM_VERS = 2.0
CREATION_DATE  = 
ORIGINATOR     = 

OBJECT_NAME    = UNKNOWN
OBJECT_ID      = 
CENTER_NAME    = EARTH
REF_FRAME      = TEME
TIME_SYSTEM    = UTC
MEAN_ELEMENT_THEORY = SGP/SGP4

EPOCH          = 2025-11-12T03:40:21.608832
MEAN_MOTION    = 14.11613073
ECCENTRICITY   = .0069683
INCLINATION    = 99.3186
RA_OF_ASC_NODE = 200.9294
ARG_OF_PERICENTER = 69.6403
MEAN_ANOMALY   = 291.2236

EPHEMERIS_TYPE = 0
CLASSIFICATION_TYPE = U
NORAD_CAT_ID   = 82223
ELEMENT_SET_NO = 999
REV_AT_EPOCH   = 44447
BSTAR          = .17195E-2
MEAN_MOTION_DOT = .3151E-4
MEAN_MOTION_DDOT = 0

CCSDS_OMM_VERS = 2.0
CREATION_DATE  = 
ORIGINATOR     = 

OBJECT_NAME    = UNKNOWN
OBJECT_ID      = 
CENTER_NAME    = EARTH
REF_FRAME      = TEME
TIME_SYSTEM    = UTC
MEAN_ELEMENT_THEORY = SGP/SGP4

EPOCH          = 2025-10-28T16:57:00.216000
MEAN_MOTION    = 14.13330554
ECCENTRICITY   = .00732
INCLINATION    = 98.9048
RA_OF_ASC_NODE = 207.3433
ARG_OF_PERICENTER = 320.9961
MEAN_ANOMALY   = 67.4133

EPHEMERIS_TYPE = 0
CLASSIFICATION_TYPE = U
NORAD_CAT_ID   = 82250
ELEMENT_SET_NO = 999
REV_AT_EPOCH   = 61027
BSTAR          = .24508E-2
MEAN_MOTION_DOT = .4674E-4
MEAN_MOTION_DDOT = 0

CCSDS_OMM_VERS = 2.0
CREATION_DATE  = 
ORIGINATOR     = 

OBJECT_NAME    = UNKNOWN
OBJECT_ID      = 
CENTER_NAME    = EARTH
REF_FRAME      = TEME
TIME_SYSTEM    = UTC
MEAN_ELEMENT_THEORY = SGP/SGP4

EPOCH          = 2025-11-12T11:15:50.266656
MEAN_MOTION    = 12.33506567
ECCENTRICITY   = .0752959
INCLINATION    = 67.5250
RA_OF_ASC_NODE = 255.5521
ARG_OF_PERICENTER = 125.9933
MEAN_ANOMALY   = 241.3298

EPHEMERIS_TYPE = 0
CLASSIFICATION_TYPE = U
NORAD_CAT_ID   = 82272
ELEMENT_SET_NO = 999
REV_AT_EPOCH   = 26820
BSTAR          = .21513E-2
MEAN_MOTION_DOT = .646E-5
MEAN_MOTION_DDOT = 0

CCSDS_OMM_VERS = 2.0
CREATION_DATE  = 
ORIGINATOR     = 

OBJECT_NAME    = UNKNOWN
OBJECT_ID      = 
CENTER_NAME    = EARTH
REF_FRAME      = TEME
TIME_SYSTEM    = UTC
MEAN_ELEMENT_THEORY = SGP/SGP4

EPOCH          = 2025-11-05T13:12:31.383936
MEAN_MOTION    = 14.31184947
ECCENTRICITY   = .0129908
INCLINATION    = 66.6200
RA_OF_ASC_NODE = 245.9932
ARG_OF_PERICENTER = 248.5318
MEAN_ANOMALY   = 110.1886

EPHEMERIS_TYPE = 0
CLASSIFICATION_TYPE = U
NORAD_CAT_ID   = 82295
ELEMENT_SET_NO = 999
REV_AT_EPOCH   = 57440
BSTAR          = .56719E-3
MEAN_MOTION_DOT = .1555E-4
MEAN_MOTION_DDOT = 0

CCSDS_OMM_VERS = 2.0
CREATION_DATE  = 
ORIGINATOR     = 

OBJECT_NAME    = UNKNOWN
OBJECT_ID      = 
CENTER_NAME    = EARTH
REF_FRAME      = TEME
TIME_SYSTEM    = UTC
MEAN_ELEMENT_THEORY = SGP/SGP4

EPOCH          = 2025-11-11T12:02:16.289088
MEAN_MOTION    = 13.84186330
ECCENTRICITY   = .0052843
INCLINATION    = 81.9150
RA_OF_ASC_NODE = 30.0794
ARG_OF_PERICENTER = 117.9703
MEAN_ANOMALY   = 258.6600

EPHEMERIS_TYPE = 0
CLASSIFICATION_TYPE = U
NORAD_CAT_ID   = 82303
ELEMENT_SET_NO = 999
REV_AT_EPOCH   = 51010
BSTAR          = .36194E-1
MEAN_MOTION_DOT = .40988E-3
MEAN_MOTION_DDOT = 0

CCSDS_OMM_VERS = 2.0
CREATION_DATE  = 
ORIGINATOR     = 

OBJECT_NAME    = UNKNOWN
OBJECT_ID      = 
CENTER_NAME    = EARTH
REF_FRAME      = TEME
TIME_SYSTEM    = UTC
MEAN_ELEMENT_THEORY = SGP/SGP4

EPOCH          = 2025-11-10T02:37:43.205376
MEAN_MOTION    = 13.54479600
ECCENTRICITY   = .0108454
INCLINATION    = 99.4368
RA_OF_ASC_NODE = 9.4210
ARG_OF_PERICENTER = 30.7088
MEAN_ANOMALY   = 330.0337

EPHEMERIS_TYPE = 0
CLASSIFICATION_TYPE = U
NORAD_CAT_ID   = 82311
ELEMENT_SET_NO = 999
REV_AT_EPOCH   = 54590
BSTAR          = .11829E-2
MEAN_MOTION_DOT = .797E-5
MEAN_MOTION_DDOT = 0

